{
  "norad_id": 56425,
  "name": "STARLINK-6224",
  "history": [
    {
      "epoch": "2026-04-18T00:00:04.000320Z",
      "apogee_km": 508.1678204602349,
      "perigee_km": 505.81654884367526,
      "latitude_deg": 40.898605875201014,
      "longitude_deg": 178.54245507777873,
      "height_km": 510.2957477965042,
      "semi_major_axis_km": 6885.129184651954,
      "eccentricity": 0.00017075,
      "inclination_deg": 42.9989,
      "raan_deg": 317.1979,
      "arg_perigee_deg": 310.2068,
      "mean_anomaly_deg": 122.9302,
      "mean_motion_rev_day": 15.19618675
    },
    {
      "epoch": "2026-04-18T20:00:01.000224Z",
      "apogee_km": 506.19870425098907,
      "perigee_km": 503.4372627116154,
      "latitude_deg": -27.55226194130565,
      "longitude_deg": 131.7977193575313,
      "height_km": 511.2216030885333,
      "semi_major_axis_km": 6882.9549834813015,
      "eccentricity": 0.0002006,
      "inclination_deg": 43.0003,
      "raan_deg": 312.5556,
      "arg_perigee_deg": 257.3509,
      "mean_anomaly_deg": 60.2271,
      "mean_motion_rev_day": 15.20338762
    },
    {
      "epoch": "2026-04-19T20:00:01.999008Z",
      "apogee_km": 501.1231893663562,
      "perigee_km": 498.67048250046264,
      "latitude_deg": 26.327113256400697,
      "longitude_deg": -169.12906792128547,
      "height_km": 500.4851861594597,
      "semi_major_axis_km": 6878.033835933409,
      "eccentricity": 0.0001783,
      "inclination_deg": 42.9993,
      "raan_deg": 306.9603,
      "arg_perigee_deg": 283.486,
      "mean_anomaly_deg": 116.895,
      "mean_motion_rev_day": 15.21970729
    },
    {
      "epoch": "2026-04-20T14:00:03.000384Z",
      "apogee_km": 496.9949152769377,
      "perigee_km": 495.2083006627263,
      "latitude_deg": -11.207421097541502,
      "longitude_deg": 76.27253407122812,
      "height_km": 497.2598251661363,
      "semi_major_axis_km": 6874.238607969832,
      "eccentricity": 0.00012995,
      "inclination_deg": 42.9999,
      "raan_deg": 302.7576,
      "arg_perigee_deg": 229.9002,
      "mean_anomaly_deg": 326.4875,
      "mean_motion_rev_day": 15.2323131
    },
    {
      "epoch": "2026-04-21T20:00:01.999008Z",
      "apogee_km": 491.1244282481648,
      "perigee_km": 488.92661624104676,
      "latitude_deg": -28.275706879895736,
      "longitude_deg": 0.8276603035353033,
      "height_km": 496.336682618975,
      "semi_major_axis_km": 6868.1625222446055,
      "eccentricity": 0.00016,
      "inclination_deg": 42.9994,
      "raan_deg": 295.7341,
      "arg_perigee_deg": 241.1489,
      "mean_anomaly_deg": 342.5419,
      "mean_motion_rev_day": 15.25253102
    },
    {
      "epoch": "2026-04-22T20:00:03.000384Z",
      "apogee_km": 486.7363512066868,
      "perigee_km": 484.3958284530545,
      "latitude_deg": -23.57959679999077,
      "longitude_deg": 111.46211282755091,
      "height_km": 490.48575396640933,
      "semi_major_axis_km": 6863.70308982987,
      "eccentricity": 0.0001705,
      "inclination_deg": 43.004,
      "raan_deg": 290.1002,
      "arg_perigee_deg": 272.5954,
      "mean_anomaly_deg": 51.7535,
      "mean_motion_rev_day": 15.26739807
    },
    {
      "epoch": "2026-04-23T14:00:04.000032Z",
      "apogee_km": 486.6918703060119,
      "perigee_km": 484.358225209774,
      "latitude_deg": 30.871682317731146,
      "longitude_deg": 4.614854517083996,
      "height_km": 487.044298041591,
      "semi_major_axis_km": 6863.662047757893,
      "eccentricity": 0.00017,
      "inclination_deg": 42.9997,
      "raan_deg": 285.8691,
      "arg_perigee_deg": 264.7765,
      "mean_anomaly_deg": 226.6631,
      "mean_motion_rev_day": 15.26753501
    },
    {
      "epoch": "2026-04-24T20:00:01.999008Z",
      "apogee_km": 486.890887585726,
      "perigee_km": 484.37874710057713,
      "latitude_deg": 6.999923930368341,
      "longitude_deg": -61.57259817955262,
      "height_km": 485.09515349264626,
      "semi_major_axis_km": 6863.771817343151,
      "eccentricity": 0.000183,
      "inclination_deg": 42.9996,
      "raan_deg": 278.8204,
      "arg_perigee_deg": 274.5679,
      "mean_anomaly_deg": 255.1359,
      "mean_motion_rev_day": 15.26716876
    }
  ]
}